ONEWEB-0018             
1 45434U 20020L   25156.54075135 -.00000348  00000+0 -10189-2 0  9990
2 45434  87.8838  96.1370 0001987  81.7479 278.3874 13.11413181253273
ONEWEB-0083             
1 45435U 20020M   25156.53058113  .00000101  00000+0  25024-3 0  9997
2 45435  87.8838  96.1233 0002092  80.0208 280.1155 13.11416153253301
ONEWEB-0095             
1 45436U 20020N   25156.52224715  .00000443  00000+0  12129-2 0  9990
2 45436  87.8836  96.1512 0002620  68.5145 291.6262 13.11416581253309
ONEWEB-0092             
1 45437U 20020P   25156.57041980 -.00000124  00000+0 -38643-3 0  9995
2 45437  87.8839  96.1292 0002177  74.5002 285.6366 13.11418488253423
ONEWEB-0085             
1 45438U 20020Q   25156.29495056 -.00015454  00000+0 -43792-1 0  9993
2 45438  87.8838  96.1958 0001354 340.0710  20.0364 13.11291904253280
ONEWEB-0096             
1 45439U 20020R   25156.76115179  .00000077  00000+0  18274-3 0  9993
2 45439  87.8837  96.0687 0001848  82.5240 277.6097 13.11413733253337
ONEWEB-0037             
1 45440U 20020S   25156.58906422  .00000595  00000+0  16433-2 0  9993
2 45440  87.8832  96.0656 0002053  77.5086 282.6272 13.11420860253331
ONEWEB-0042             
1 45441U 20020T   25156.52196461  .00000429  00000+0  11737-2 0  9990
2 45441  87.8836  96.1268 0001924  78.6942 281.4402 13.11416828253291
